{
  "features": [
    {
      "geometry": {
        "coordinates": [
          [
            [
              35.414317253521205,
              33.23358795780655
            ],
            [
              35.310069206646205,
              33.321783758587884
            ],
            [
              35.349742058208705,
              33.506293035931606
            ],
            [
              35.45411217539626,
              33.70490143436908
            ],
            [
              35.544077995708705,
              33.835394598431606
            ],
            [
              35.87696373789626,
              34.197821356244134
            ],
            [
              35.947764519146205,
              34.30475494999405
            ],
            [
              36.021983269146205,
              34.44190094608783
            ],
            [
              36.110118034771205,
              34.56024811405658
            ],
            [
              36.222178581646205,
              34.610846258587856
            ],
            [
              36.307505730083705,
              34.5809390320253
            ],
            [
              36.349742058208705,
              34.50653717655655
            ],
            [
              36.357676628521205,
              34.411444403119134
            ],
            [
              36.34009850352126,
              34.319586492962856
            ],
            [
              36.29737389414626,
              34.2181460632753
            ],
            [
              36.242564323833705,
              34.121710516400356
            ],
            [
              36.122202995708705,
              33.93579743046283
            ],
            [
              36.028575066021205,
              33.80768463749405
            ],
            [
              35.572398308208705,
              33.3236148132753
            ],
            [
              35.49293053477126,
              33.258551336712884
            ],
            [
              35.414317253521205,
              33.23358795780655
            ]
          ]
        ],
        "type": "Polygon"
      },
      "properties": {
        "feature_id": "natural-earth:lebanon-mountains",
        "feature_type": "mountain_region",
        "name": "Mount Lebanon Range",
        "role": "allocation_assumption_and_display",
        "source_id": "SRC_NATURAL_EARTH",
        "upstream_ne_id": 1730071649
      },
      "type": "Feature"
    },
    {
      "geometry": {
        "coordinates": [
          [
            [
              35.04529869883376,
              37.482855535931634
            ],
            [
              34.99024498789626,
              37.263006903119106
            ],
            [
              34.834361198833705,
              37.026007391400356
            ],
            [
              34.534556511333705,
              36.75305817265033
            ],
            [
              34.125132683208705,
              36.494147039837856
            ],
            [
              33.640757683208705,
              36.2990786804628
            ],
            [
              33.21937096445876,
              36.16882965702533
            ],
            [
              32.91810143320876,
              36.102972723431634
            ],
            [
              32.65040123789626,
              36.149603582806606
            ],
            [
              32.329844597271205,
              36.356940008587884
            ],
            [
              31.97681725352126,
              36.61810944218158
            ],
            [
              31.68873131602126,
              36.797919012494134
            ],
            [
              31.494883659771205,
              36.90180084843155
            ],
            [
              31.42371666758376,
              36.935309149212856
            ],
            [
              31.34900963633376,
              36.97894928593155
            ],
            [
              31.288828972271205,
              37.05335114140033
            ],
            [
              31.27186119883376,
              37.16034577030658
            ],
            [
              31.327403191021205,
              37.30158112186905
            ],
            [
              31.44275963633376,
              37.46515534061908
            ],
            [
              31.585215691021205,
              37.612433172650356
            ],
            [
              31.753062370708705,
              37.705511785931606
            ],
            [
              31.944346550396205,
              37.70642731327533
            ],
            [
              32.479258659771205,
              37.559393621869106
            ],
            [
              32.844248894146205,
              37.508490301556606
            ],
            [
              33.274424675396205,
              37.513617254681606
            ],
            [
              33.566172722271205,
              37.54962799686905
            ],
            [
              33.79700768320876,
              37.594122625775356
            ],
            [
              34.23829186289626,
              37.70642731327533
            ],
            [
              34.766368034771205,
              37.774359442181606
            ],
            [
              34.874522331646205,
              37.802801824994134
            ],
            [
              35.003672722271205,
              37.821478582806606
            ],
            [
              35.05530846445876,
              37.691900946087884
            ],
            [
              35.04529869883376,
              37.482855535931634
            ]
          ]
        ],
        "type": "Polygon"
      },
      "properties": {
        "feature_id": "natural-earth:taurus-mountains",
        "feature_type": "mountain_region",
        "name": "Taurus mountains",
        "role": "allocation_assumption_and_display",
        "source_id": "SRC_NATURAL_EARTH",
        "upstream_ne_id": 1159103077
      },
      "type": "Feature"
    },
    {
      "geometry": {
        "coordinates": [
          [
            [
              35.863867187500006,
              33.59638092655662
            ],
            [
              35.850195312500006,
              33.587762762494116
            ],
            [
              35.83730468750002,
              33.57765534061912
            ],
            [
              35.825781250000006,
              33.56598541874412
            ],
            [
              35.81630859375002,
              33.552850653119116
            ],
            [
              35.80341796875001,
              33.51149323124412
            ],
            [
              35.795166015625,
              33.50531647343162
            ],
            [
              35.779296875,
              33.50006744999412
            ],
            [
              35.76123046875,
              33.47699616093162
            ],
            [
              35.730712890625,
              33.46657135624412
            ],
            [
              35.716406250000006,
              33.45429108280662
            ],
            [
              35.695556640625,
              33.43085358280662
            ],
            [
              35.67666015625002,
              33.411249090619116
            ],
            [
              35.66494140625002,
              33.389032293744116
            ],
            [
              35.638671875,
              33.31183502811912
            ],
            [
              35.633056640625,
              33.269647528119116
            ],
            [
              35.628173828125,
              33.25446198124412
            ],
            [
              35.596777343750006,
              33.19752838749412
            ],
            [
              35.593359375000006,
              33.18134186405662
            ],
            [
              35.583984375,
              32.99591705936912
            ],
            [
              35.598242187500006,
              32.924188543744116
            ],
            [
              35.598876953125,
              32.89972565311912
            ]
          ],
          [
            [
              35.576904296875,
              32.72028229374412
            ],
            [
              35.56679687500002,
              32.71120026249412
            ],
            [
              35.564697265625,
              32.705438543744116
            ],
            [
              35.566162109375,
              32.70070221561912
            ],
            [
              35.572021484375,
              32.69721100468162
            ],
            [
              35.56044921875002,
              32.69245026249412
            ],
            [
              35.55810546875,
              32.681268621869116
            ],
            [
              35.561132812500006,
              32.66779205936912
            ],
            [
              35.565185546875,
              32.65619537968162
            ],
            [
              35.565673828125,
              32.65236237186912
            ],
            [
              35.56494140625,
              32.649774481244116
            ],
            [
              35.565185546875,
              32.64874909061912
            ],
            [
              35.56005859375,
              32.64113190311912
            ],
            [
              35.5595703125,
              32.63287994999412
            ],
            [
              35.563574218750006,
              32.62567780155662
            ],
            [
              35.572021484375,
              32.621454168744116
            ],
            [
              35.572021484375,
              32.61525299686912
            ],
            [
              35.565185546875,
              32.61525299686912
            ],
            [
              35.565185546875,
              32.607782293744116
            ],
            [
              35.57080078125,
              32.598749090619116
            ],
            [
              35.573828125000006,
              32.57301666874412
            ],
            [
              35.57949218750002,
              32.56061432499412
            ],
            [
              35.575292968750006,
              32.55519440311912
            ],
            [
              35.573828125000006,
              32.55463287968162
            ],
            [
              35.573339843750006,
              32.557001043744116
            ],
            [
              35.572021484375,
              32.56061432499412
            ],
            [
              35.569580078125,
              32.55707428593162
            ],
            [
              35.565185546875,
              32.54633209843162
            ],
            [
              35.55898437500002,
              32.55316803593162
            ],
            [
              35.56240234375002,
              32.53224518436912
            ],
            [
              35.565185546875,
              32.52589752811912
            ],
            [
              35.551367187500006,
              32.52589752811912
            ],
            [
              35.551367187500006,
              32.51906159061912
            ],
            [
              35.556738281250006,
              32.51954987186912
            ],
            [
              35.560791015625,
              32.51935455936912
            ],
            [
              35.567968750000006,
              32.51044342655662
            ],
            [
              35.570068359375,
              32.50629303593162
            ],
            [
              35.57949218750002,
              32.497919012494116
            ],
            [
              35.57949218750002,
              32.49176666874412
            ],
            [
              35.570410156250006,
              32.48944733280662
            ],
            [
              35.564453125,
              32.48414948124412
            ],
            [
              35.560791015625,
              32.47736237186912
            ],
            [
              35.55898437500002,
              32.47064850468162
            ],
            [
              35.562597656250006,
              32.468377996869116
            ],
            [
              35.56494140625,
              32.46657135624412
            ],
            [
              35.56757812500001,
              32.465204168744116
            ],
            [
              35.572021484375,
              32.46442291874412
            ],
            [
              35.572021484375,
              32.45697662968162
            ],
            [
              35.565673828125,
              32.45331452030662
            ],
            [
              35.55898437500002,
              32.45075104374412
            ],
            [
              35.565185546875,
              32.44391510624412
            ],
            [
              35.551367187500006,
              32.43646881718162
            ],
            [
              35.5537109375,
              32.434686590619116
            ],
            [
              35.5556640625,
              32.43500397343162
            ],
            [
              35.557373046875,
              32.43434479374412
            ],
            [
              35.55898437500002,
              32.42963287968162
            ],
            [
              35.551367187500006,
              32.42963287968162
            ],
            [
              35.551367187500006,
              32.423456121869116
            ],
            [
              35.5576171875,
              32.41823151249412
            ],
            [
              35.558691406250006,
              32.414178778119116
            ],
            [
              35.554296875000006,
              32.41139557499412
            ],
            [
              35.544677734375,
              32.409784246869116
            ],
            [
              35.549072265625,
              32.39874909061912
            ],
            [
              35.551367187500006,
              32.39552643436912
            ],
            [
              35.556396484375,
              32.39113190311912
            ],
            [
              35.56044921875002,
              32.38495514530662
            ],
            [
              35.5634765625,
              32.37726471561912
            ],
            [
              35.565185546875,
              32.36823151249412
            ],
            [
              35.55898437500002,
              32.36823151249412
            ],
            [
              35.55898437500002,
              32.37501862186912
            ],
            [
              35.551367187500006,
              32.37501862186912
            ],
            [
              35.551367187500006,
              32.36823151249412
            ],
            [
              35.556884765625,
              32.35846588749412
            ],
            [
              35.55615234375,
              32.32843659061912
            ],
            [
              35.565185546875,
              32.313592840619116
            ],
            [
              35.560644531250006,
              32.301874090619116
            ],
            [
              35.560302734375,
              32.28290436405662
            ],
            [
              35.564062500000006,
              32.26386139530662
            ],
            [
              35.572021484375,
              32.25214264530662
            ],
            [
              35.566992187500006,
              32.24977448124412
            ],
            [
              35.56337890625002,
              32.24708893436912
            ],
            [
              35.560546875,
              32.24335358280662
            ],
            [
              35.55898437500002,
              32.23786041874412
            ],
            [
              35.572021484375,
              32.23786041874412
            ],
            [
              35.5546875,
              32.17462799686912
            ],
            [
              35.55898437500002,
              32.16278717655662
            ],
            [
              35.55898437500002,
              32.15534088749412
            ],
            [
              35.55078125,
              32.151727606244116
            ],
            [
              35.546142578125,
              32.14723541874412
            ],
            [
              35.546142578125,
              32.14179108280662
            ],
            [
              35.551367187500006,
              32.13544342655662
            ],
            [
              35.53466796875,
              32.11102936405662
            ],
            [
              35.53408203125002,
              32.09943268436912
            ],
            [
              35.544677734375,
              32.087030340619116
            ],
            [
              35.52783203125,
              32.07526276249412
            ],
            [
              35.52236328125002,
              32.05805084843162
            ],
            [
              35.52412109375001,
              32.01190827030662
            ],
            [
              35.53515625,
              31.98847077030662
            ],
            [
              35.537207031250006,
              31.97785065311912
            ],
            [
              35.537841796875,
              31.96417877811912
            ],
            [
              35.53955078125,
              31.955829168744117
            ],
            [
              35.54541015625,
              31.94476959843162
            ],
            [
              35.544677734375,
              31.93683502811912
            ],
            [
              35.540136718750006,
              31.932245184369116
            ],
            [
              35.533203125,
              31.93048737186912
            ],
            [
              35.526953125000006,
              31.92755768436912
            ],
            [
              35.52412109375001,
              31.919452215619117
            ],
            [
              35.548583984375,
              31.839374090619117
            ],
            [
              35.537841796875,
              31.82697174686912
            ],
            [
              35.537841796875,
              31.81952545780662
            ],
            [
              35.55898437500002,
              31.765497137494116
            ]
          ],
          [
            [
              35.400634765625,
              31.230487371869117
            ],
            [
              35.395263671875,
              31.25787994999412
            ],
            [
              35.40771484375,
              31.282245184369117
            ],
            [
              35.42177734375002,
              31.303241278119117
            ],
            [
              35.423437500000006,
              31.324823309369116
            ]
          ]
        ],
        "type": "MultiLineString"
      },
      "properties": {
        "feature_id": "natural-earth:jordan-river",
        "feature_type": "river_centerline",
        "name": "Jordan River",
        "role": "rejected_attractor_candidate_and_display",
        "source_id": "SRC_NATURAL_EARTH",
        "upstream_ne_id": 1159114369
      },
      "type": "Feature"
    }
  ],
  "name": "natural_features",
  "type": "FeatureCollection"
}
